OBJECT_NAME,OBJECT_ID,EPOCH,MEAN_MOTION,ECCENTRICITY,INCLINATION,RA_OF_ASC_NODE,ARG_OF_PERICENTER,MEAN_ANOMALY,EPHEMERIS_TYPE,CLASSIFICATION_TYPE,NORAD_CAT_ID,ELEMENT_SET_NO,REV_AT_EPOCH,BSTAR,MEAN_MOTION_DOT,MEAN_MOTION_DDOT
IRIDIUM 113,2017-039A,2026-07-10T08:00:35.011584,14.34217385,.00021933,86.3990,312.5038,91.1544,268.9903,0,U,42803,999,47450,-.1145524E-5,.17E-6,0
NORSAT 2,2017-042D,2026-07-11T06:50:36.142656,15.22382300,.000852,97.4047,5.3526,333.5830,26.4971,0,U,42828,999,49140,.2707E-3,.6187E-4,0
TECHNOSAT,2017-042E,2026-07-10T09:16:19.420032,15.05092056,.0017861,97.4303,348.1655,18.8202,341.3681,0,U,42829,999,49019,.18607478E-3,.2596E-4,0
FLYING LAPTOP,2017-042G,2026-07-11T12:20:35.304000,15.01297837,.0019851,97.4788,347.1294,44.1451,316.1353,0,U,42831,999,49010,.17907E-3,.2255E-4,0
WNISAT 1R,2017-042L,2026-07-11T09:52:06.265632,15.01854318,.0011318,97.4823,347.6686,76.7063,283.5424,0,U,42835,999,49014,.6156E-4,.747E-5,0
LEMUR-2-GREENBERG,2017-042N,2026-07-09T11:53:19.376160,15.32031511,.00071356,97.3831,11.0293,283.6729,76.3718,0,U,42837,999,49180,.3749711E-3,.11532E-3,0
LEMUR-2-FURIAUS,2017-042R,2026-07-10T17:54:39.576960,15.31036825,.000636,97.3778,10.1778,347.2297,12.8782,0,U,42840,999,49181,.4049E-3,.12077E-3,0
CORVUS BC2,2017-042X,2026-07-10T07:28:21.992160,15.06442373,.00138712,97.4090,351.7667,39.1681,321.0548,0,U,42846,999,49054,.14632989E-3,.2103E-4,0
CORVUS BC1,2017-042Y,2026-07-10T16:50:45.602880,15.06607650,.0012081,97.4119,352.9716,16.3956,343.7660,0,U,42847,999,49063,.1141E-3,.1633E-4,0
VRSS-2,2017-060A,2026-07-11T12:09:11.535264,14.81233571,.001778,97.6508,229.1370,25.2910,334.9170,0,U,42954,999,47205,.4742E-4,.32E-5,0
MOHAMMED VI-A,2017-070A,2026-07-11T12:43:37.080192,14.77100172,.0001179,97.9552,264.5255,92.7067,267.4278,0,U,43005,999,46757,.53491E-4,.327E-5,0
FENGYUN 3D,2017-072A,2026-07-11T12:45:29.743200,14.19744144,.0001757,99.0138,167.3950,22.0375,338.0876,0,U,43010,999,44844,-.70852E-6,-.48E-6,0
NOAA 20 (JPSS-1),2017-073A,2026-07-11T11:02:30.168960,14.19516006,.0001243,98.7774,131.7076,127.9590,232.1698,0,U,43013,999,44791,.24766E-4,.8E-7,0
MAKERSAT 0,2017-073D,2026-07-11T03:26:39.954336,15.32906919,.010518,97.4598,74.8581,186.6952,173.2893,0,U,43016,999,47013,.33352E-3,.1257E-3,0
RADFXSAT (FOX-1B),2017-073E,2026-07-11T02:02:10.716000,15.13028349,.0148032,97.4682,58.8129,245.7914,112.7786,0,U,43017,999,46900,.15974E-3,.3616E-4,0
JILIN-1 04,2017-074A,2026-07-11T11:22:40.829088,15.43066208,.0005249,97.4870,302.7461,110.1906,249.9906,0,U,43022,999,47801,.18622E-3,.8138E-4,0
JILIN-1 05,2017-074B,2026-07-11T12:23:58.871040,15.34248171,.0006279,97.4876,299.0072,134.8224,225.3530,0,U,43023,999,47773,.13941E-3,.4542E-4,0
JILIN-1 06,2017-074C,2026-07-11T11:48:17.956800,15.33969211,.0007838,97.4803,295.9593,145.2055,214.9701,0,U,43024,999,47756,.1083E-3,.348E-4,0
IRIDIUM 116,2017-083C,2026-07-10T17:26:50.590752,14.34220153,.0002404,86.3983,312.1606,99.2562,260.8905,0,U,43072,999,44754,.4542E-4,.147E-5,0
IRIDIUM 130,2017-083D,2026-07-11T07:45:23.351616,14.34216997,.0002193,86.3991,312.1891,101.1278,259.0164,0,U,43073,999,44757,.41294E-4,.135E-5,0
LKW-2,2017-084A,2026-07-11T13:04:37.490304,15.26663375,.0003485,97.1189,231.2049,125.2315,234.9251,0,U,43080,999,47540,.24717E-3,.6416E-4,0
SUPERVIEW-1 03,2018-002A,2026-07-11T11:20:06.249120,15.40123150,.0047154,97.3133,277.2848,94.1449,266.5189,0,U,43099,999,47210,.26926E-3,.11133E-3,0
CARTOSAT-2F,2018-004A,2026-07-11T10:43:09.361632,15.19252689,.0002421,97.4783,251.8426,145.2470,214.8923,0,U,43111,999,47101,.12691E-3,.2606E-4,0
LKW-3,2018-006A,2026-07-11T13:22:16.792320,15.35698417,.0002726,97.6630,354.0942,191.9622,168.1557,0,U,43146,999,47245,.1172E-3,.3982E-4,0
ASNARO-2,2018-007A,2026-07-11T12:07:33.343392,15.22414492,.0001984,97.3972,199.0521,94.3726,265.7738,0,U,43152,999,47111,.24319E-3,.5552E-4,0
JILIN-1 07,2018-008E,2026-07-11T11:23:46.904352,15.35124404,.0007136,97.1768,211.7606,343.7363,16.3651,0,U,43159,999,46872,.16199E-3,.5448E-4,0
JILIN-1 08,2018-008F,2026-07-11T11:48:37.870272,15.33983239,.0005765,97.1804,211.0666,6.7070,353.4249,0,U,43160,999,46867,.11564E-3,.3727E-4,0
S-NET D,2018-014G,2026-07-10T14:49:25.296096,15.16892455,.000644,97.5340,96.2628,304.7096,55.3530,0,U,43186,999,46231,.18357E-3,.3549E-4,0
S-NET B,2018-014H,2026-07-11T03:46:31.188288,15.16864719,.0007015,97.5347,96.7865,296.4851,63.5663,0,U,43187,999,46239,.16086E-3,.3099E-4,0
S-NET A,2018-014J,2026-07-11T12:57:29.164032,15.16906119,.0006891,97.5357,97.3804,295.5438,64.5082,0,U,43188,999,46245,.15695E-3,.3026E-4,0
